[{"OBJECT_NAME":"STARLINK-34712","OBJECT_ID":"2025-157D","EPOCH":"2026-03-09T22:02:37.002912","MEAN_MOTION":15.30210903,"ECCENTRICITY":0.00011398,"INCLINATION":53.1581,"RA_OF_ASC_NODE":344.2685,"ARG_OF_PERICENTER":70.3066,"MEAN_ANOMALY":289.8058,"EPHEMERIS_TYPE":0,"CLASSIFICATION_TYPE":"U","NORAD_CAT_ID":64907,"ELEMENT_SET_NO":999,"REV_AT_EPOCH":3616,"BSTAR":0.00085517831,"MEAN_MOTION_DOT":0.00025063,"MEAN_MOTION_DDOT":0},{"OBJECT_NAME":"OBJECT L","OBJECT_ID":"2024-024L","EPOCH":"2026-03-09T22:36:05.522976","MEAN_MOTION":15.29373491,"ECCENTRICITY":0.00073185,"INCLINATION":97.3169,"RA_OF_ASC_NODE":137.7038,"ARG_OF_PERICENTER":167.6369,"MEAN_ANOMALY":192.5052,"EPHEMERIS_TYPE":0,"CLASSIFICATION_TYPE":"U","NORAD_CAT_ID":58927,"ELEMENT_SET_NO":999,"REV_AT_EPOCH":9318,"BSTAR":0.00043092344,"MEAN_MOTION_DOT":0.00012217,"MEAN_MOTION_DDOT":0}]
